[{"OBJECT_NAME":"OBJECT AD","OBJECT_ID":"2023-085AD","EPOCH":"2026-03-09T21:41:29.115744","MEAN_MOTION":15.31779154,"ECCENTRICITY":0.00101154,"INCLINATION":97.4841,"RA_OF_ASC_NODE":180.2223,"ARG_OF_PERICENTER":77.5993,"MEAN_ANOMALY":282.638,"EPHEMERIS_TYPE":0,"CLASSIFICATION_TYPE":"U","NORAD_CAT_ID":57031,"ELEMENT_SET_NO":999,"REV_AT_EPOCH":15156,"BSTAR":0.00068352515,"MEAN_MOTION_DOT":0.00020961,"MEAN_MOTION_DDOT":0},{"OBJECT_NAME":"STARLINK-32883","OBJECT_ID":"2025-018A","EPOCH":"2026-03-09T23:27:33.048576","MEAN_MOTION":15.30195782,"ECCENTRICITY":0.00012183,"INCLINATION":53.1608,"RA_OF_ASC_NODE":308.179,"ARG_OF_PERICENTER":89.2237,"MEAN_ANOMALY":270.8903,"EPHEMERIS_TYPE":0,"CLASSIFICATION_TYPE":"U","NORAD_CAT_ID":62806,"ELEMENT_SET_NO":999,"REV_AT_EPOCH":6413,"BSTAR":0.00073518802,"MEAN_MOTION_DOT":0.00021475,"MEAN_MOTION_DDOT":0}]
